{"fetched_at":"2026-07-07T07:58:55.845Z","source":"https://celestrak.org/NORAD/elements/gp.php?NAME=STRIX&FORMAT=JSON","constellation":"synspective","records":[{"OBJECT_NAME":"STRIX-1","OBJECT_ID":"2022-113A","EPOCH":"2026-07-06T20:52:08.885856","CLASSIFICATION_TYPE":"U","MEAN_MOTION":15.40731642,"ECCENTRICITY":0.0005092,"INCLINATION":97.448,"RA_OF_ASC_NODE":250.2549,"ARG_OF_PERICENTER":153.8928,"MEAN_ANOMALY":206.2576,"EPHEMERIS_TYPE":0,"NORAD_CAT_ID":53815,"ELEMENT_SET_NO":999,"REV_AT_EPOCH":21047,"BSTAR":0.00048832,"MEAN_MOTION_DOT":0.00019906,"MEAN_MOTION_DDOT":0},{"OBJECT_NAME":"STRIX-3","OBJECT_ID":"2024-047A","EPOCH":"2026-07-06T20:49:51.388896","CLASSIFICATION_TYPE":"U","MEAN_MOTION":15.19718262,"ECCENTRICITY":0.0013017,"INCLINATION":97.6633,"RA_OF_ASC_NODE":163.8378,"ARG_OF_PERICENTER":4.5419,"MEAN_ANOMALY":355.5931,"EPHEMERIS_TYPE":0,"NORAD_CAT_ID":59224,"ELEMENT_SET_NO":999,"REV_AT_EPOCH":12773,"BSTAR":0.00033997,"MEAN_MOTION_DOT":0.00007208,"MEAN_MOTION_DDOT":0},{"OBJECT_NAME":"STRIX-4","OBJECT_ID":"2024-137A","EPOCH":"2026-07-06T19:59:45.026592","CLASSIFICATION_TYPE":"U","MEAN_MOTION":15.33134107,"ECCENTRICITY":0.0015902,"INCLINATION":43.0142,"RA_OF_ASC_NODE":173.1875,"ARG_OF_PERICENTER":72.4702,"MEAN_ANOMALY":287.7888,"EPHEMERIS_TYPE":0,"NORAD_CAT_ID":60352,"ELEMENT_SET_NO":999,"REV_AT_EPOCH":10703,"BSTAR":0.00034267,"MEAN_MOTION_DOT":0.00010978,"MEAN_MOTION_DDOT":0},{"OBJECT_NAME":"STRIX-2","OBJECT_ID":"2024-248A","EPOCH":"2026-07-06T20:00:23.460768","CLASSIFICATION_TYPE":"U","MEAN_MOTION":15.09130747,"ECCENTRICITY":0.0013648,"INCLINATION":97.6291,"RA_OF_ASC_NODE":143.3625,"ARG_OF_PERICENTER":268.3585,"MEAN_ANOMALY":91.608,"EPHEMERIS_TYPE":0,"NORAD_CAT_ID":62406,"ELEMENT_SET_NO":999,"REV_AT_EPOCH":8455,"BSTAR":0.00034199,"MEAN_MOTION_DOT":0.00005373,"MEAN_MOTION_DDOT":0},{"OBJECT_NAME":"STRIX-5","OBJECT_ID":"2025-229A","EPOCH":"2026-07-06T08:31:12.834624","CLASSIFICATION_TYPE":"U","MEAN_MOTION":15.04551499,"ECCENTRICITY":0.00367834,"INCLINATION":41.9262,"RA_OF_ASC_NODE":181.0976,"ARG_OF_PERICENTER":180.4845,"MEAN_ANOMALY":179.5951,"EPHEMERIS_TYPE":0,"NORAD_CAT_ID":65971,"ELEMENT_SET_NO":999,"REV_AT_EPOCH":3986,"BSTAR":0.00022411111,"MEAN_MOTION_DOT":0.00003047,"MEAN_MOTION_DDOT":0},{"OBJECT_NAME":"STRIX-6","OBJECT_ID":"2026-056A","EPOCH":"2026-07-06T09:03:29.194272","CLASSIFICATION_TYPE":"U","MEAN_MOTION":15.00301937,"ECCENTRICITY":0.00165538,"INCLINATION":50.2819,"RA_OF_ASC_NODE":259.0748,"ARG_OF_PERICENTER":317.4088,"MEAN_ANOMALY":42.5577,"EPHEMERIS_TYPE":0,"NORAD_CAT_ID":68291,"ELEMENT_SET_NO":999,"REV_AT_EPOCH":1615,"BSTAR":0.00025949281,"MEAN_MOTION_DOT":0.00003033,"MEAN_MOTION_DDOT":0},{"OBJECT_NAME":"STRIX-7","OBJECT_ID":"2026-112A","EPOCH":"2026-07-06T20:46:44.388192","CLASSIFICATION_TYPE":"U","MEAN_MOTION":15.01566371,"ECCENTRICITY":0.0023729,"INCLINATION":44.9069,"RA_OF_ASC_NODE":89.0846,"ARG_OF_PERICENTER":161.5122,"MEAN_ANOMALY":198.6617,"EPHEMERIS_TYPE":0,"NORAD_CAT_ID":69177,"ELEMENT_SET_NO":999,"REV_AT_EPOCH":683,"BSTAR":0.00026192,"MEAN_MOTION_DOT":0.00003232,"MEAN_MOTION_DDOT":0},{"OBJECT_NAME":"STRIX-8","OBJECT_ID":"2026-146A","EPOCH":"2026-07-06T18:53:38.253120","CLASSIFICATION_TYPE":"U","MEAN_MOTION":15.0438545,"ECCENTRICITY":0.0008549,"INCLINATION":41.9896,"RA_OF_ASC_NODE":59.6678,"ARG_OF_PERICENTER":328.2246,"MEAN_ANOMALY":31.8064,"EPHEMERIS_TYPE":0,"NORAD_CAT_ID":69701,"ELEMENT_SET_NO":999,"REV_AT_EPOCH":151,"BSTAR":0.00027987,"MEAN_MOTION_DOT":0.00003786,"MEAN_MOTION_DDOT":0}]}
