STRIX-1                 
1 53815U 22113A   26187.86954729  .00019906  00000+0  48832-3 0  9997
2 53815  97.4480 250.2549 0005092 153.8928 206.2576 15.40731642210470
STRIX-3                 
1 59224U 24047A   26187.86795589  .00007208  00000+0  33997-3 0  9990
2 59224  97.6633 163.8378 0013017   4.5419 355.5931 15.19718262127732
STRIX-4                 
1 60352U 24137A   26187.83316003  .00010978  00000+0  34267-3 0  9990
2 60352  43.0142 173.1875 0015902  72.4702 287.7888 15.33134107107030
STRIX-2                 
1 62406U 24248A   26187.83360487  .00005373  00000+0  34199-3 0  9997
2 62406  97.6291 143.3625 0013648 268.3585  91.6080 15.09130747 84550
STRIX-5                 
1 65971U 25229A   26187.35500966  .00003047  00000+0  22411-3 0  9992
2 65971  41.9262 181.0976 0036783 180.4845 179.5951 15.04551499 39869
STRIX-6                 
1 68291U 26056A   26187.37742123  .00003033  00000+0  25949-3 0  9998
2 68291  50.2819 259.0748 0016553 317.4088  42.5577 15.00301937 16151
STRIX-7                 
1 69177U 26112A   26187.86579153  .00003232  00000+0  26192-3 0  9992
2 69177  44.9069  89.0846 0023729 161.5122 198.6617 15.01566371  6830
STRIX-8                 
1 69701U 26146A   26187.78724830  .00003786  00000+0  27987-3 0  9994
2 69701  41.9896  59.6678 0008549 328.2246  31.8064 15.04385450  1510
